CTC2_L_00314001-01
1 10000U 25618SF  26075.70043981  .00000000  00000+0  00000-0 0  9994
2 10000  45.0000   0.0000 0000000   0.0000   0.0000 13.69880518    12
CTC2_L_00314001-02
1 10001U 25183QI  26075.70043981  .00000000  00000+0  00000-0 0  9992
2 10001  45.0000   0.0000 0000000   0.0000  90.0000 13.69880518    12
CTC2_L_00314001-03
1 10002U 26270BC  26075.70043981  .00000000  00000+0  00000-0 0  9991
2 10002  45.0000   0.0000 0000000   0.0000 180.0000 13.69880518    13
CTC2_L_00314001-04
1 10003U 24763LN  26075.70043981  .00000000  00000+0  00000-0 0  9997
2 10003  45.0000   0.0000 0000000   0.0000 270.0000 13.69880518    14
CTC2_L_00314002-01
1 10004U 26778DM  26075.70043981  .00000000  00000+0  00000-0 0  9996
2 10004  45.0000  12.0000 0000000   0.0000  12.0000 13.69880518    12
CTC2_L_00314002-02
1 10005U 22369QT  26075.70043981  .00000000  00000+0  00000-0 0  9999
2 10005  45.0000  12.0000 0000000   0.0000 102.0000 13.69880518    13
CTC2_L_00314002-03
1 10006U 23443IE  26075.70043981  .00000000  00000+0  00000-0 0  9994
2 10006  45.0000  12.0000 0000000   0.0000 192.0000 13.69880518    13
CTC2_L_00314002-04
1 10007U 22455MD  26075.70043981  .00000000  00000+0  00000-0 0  9997
2 10007  45.0000  12.0000 0000000   0.0000 282.0000 13.69880518    14
CTC2_L_00314003-01
1 10008U 22105LF  26075.70043981  .00000000  00000+0  00000-0 0  9990
2 10008  45.0000  24.0000 0000000   0.0000  24.0000 13.69880518    12
CTC2_L_00314003-02
1 10009U 22115DA  26075.70043981  .00000000  00000+0  00000-0 0  9992
2 10009  45.0000  24.0000 0000000   0.0000 114.0000 13.69880518    13
CTC2_L_00314003-03
1 10010U 26738BU  26075.70043981  .00000000  00000+0  00000-0 0  9999
2 10010  45.0000  24.0000 0000000   0.0000 204.0000 13.69880518    15
CTC2_L_00314003-04
1 10011U 23716VZ  26075.70043981  .00000000  00000+0  00000-0 0  9993
2 10011  45.0000  24.0000 0000000   0.0000 294.0000 13.69880518    15
CTC2_L_00314004-01
1 10012U 23735OF  26075.70043981  .00000000  00000+0  00000-0 0  9995
2 10012  45.0000  36.0000 0000000   0.0000  36.0000 13.69880518    13
CTC2_L_00314004-02
1 10013U 24680KA  26075.70043981  .00000000  00000+0  00000-0 0  9996
2 10013  45.0000  36.0000 0000000   0.0000 126.0000 13.69880518    14
CTC2_L_00314004-03
1 10014U 24767MQ  26075.70043981  .00000000  00000+0  00000-0 0  9993
2 10014  45.0000  36.0000 0000000   0.0000 216.0000 13.69880518    15
CTC2_L_00314004-04
1 10015U 22324RB  26075.70043981  .00000000  00000+0  00000-0 0  9991
2 10015  45.0000  36.0000 0000000   0.0000 306.0000 13.69880518    16
CTC2_L_00314005-01
1 10016U 24826TL  26075.70043981  .00000000  00000+0  00000-0 0  9991
2 10016  45.0000  48.0000 0000000   0.0000  48.0000 13.69880518    13
CTC2_L_00314005-02
1 10017U 24739CR  26075.70043981  .00000000  00000+0  00000-0 0  9995
2 10017  45.0000  48.0000 0000000   0.0000 138.0000 13.69880518    14
CTC2_L_00314005-03
1 10018U 26365TC  26075.70043981  .00000000  00000+0  00000-0 0  9993
2 10018  45.0000  48.0000 0000000   0.0000 228.0000 13.69880518    15
CTC2_L_00314005-04
1 10019U 26528ZL  26075.70043981  .00000000  00000+0  00000-0 0  9995
2 10019  45.0000  48.0000 0000000   0.0000 318.0000 13.69880518    16
CTC2_L_00314006-01
1 10020U 22601JC  26075.70043981  .00000000  00000+0  00000-0 0  9995
2 10020  45.0000  60.0000 0000000   0.0000  60.0000 13.69880518    16
CTC2_L_00314006-02
1 10021U 24264LQ  26075.70043981  .00000000  00000+0  00000-0 0  9993
2 10021  45.0000  60.0000 0000000   0.0000 150.0000 13.69880518    17
CTC2_L_00314006-03
1 10022U 26809NG  26075.70043981  .00000000  00000+0  00000-0 0  9991
2 10022  45.0000  60.0000 0000000   0.0000 240.0000 13.69880518    18
CTC2_L_00314006-04
1 10023U 25645ZG  26075.70043981  .00000000  00000+0  00000-0 0  9999
2 10023  45.0000  60.0000 0000000   0.0000 330.0000 13.69880518    19
CTC2_L_00314007-01
1 10024U 24066KW  26075.70043981  .00000000  00000+0  00000-0 0  9996
2 10024  45.0000  72.0000 0000000   0.0000  72.0000 13.69880518    16
CTC2_L_00314007-02
1 10025U 24665BR  26075.70043981  .00000000  00000+0  00000-0 0  9992
2 10025  45.0000  72.0000 0000000   0.0000 162.0000 13.69880518    17
CTC2_L_00314007-03
1 10026U 25838NU  26075.70043981  .00000000  00000+0  00000-0 0  9996
2 10026  45.0000  72.0000 0000000   0.0000 252.0000 13.69880518    18
CTC2_L_00314007-04
1 10027U 23018FV  26075.70043981  .00000000  00000+0  00000-0 0  9995
2 10027  45.0000  72.0000 0000000   0.0000 342.0000 13.69880518    19
CTC2_L_00314008-01
1 10028U 26280ZF  26075.70043981  .00000000  00000+0  00000-0 0  9990
2 10028  45.0000  84.0000 0000000   0.0000  84.0000 13.69880518    16
CTC2_L_00314008-02
1 10029U 24741RH  26075.70043981  .00000000  00000+0  00000-0 0  9991
2 10029  45.0000  84.0000 0000000   0.0000 174.0000 13.69880518    17
CTC2_L_00314008-03
1 10030U 23086PD  26075.70043981  .00000000  00000+0  00000-0 0  9994
2 10030  45.0000  84.0000 0000000   0.0000 264.0000 13.69880518    19
CTC2_L_00314008-04
1 10031U 24619KQ  26075.70043981  .00000000  00000+0  00000-0 0  9998
2 10031  45.0000  84.0000 0000000   0.0000 354.0000 13.69880518    10
CTC2_L_00314009-01
1 10032U 26976YF  26075.70043981  .00000000  00000+0  00000-0 0  9997
2 10032  45.0000  96.0000 0000000   0.0000  96.0000 13.69880518    17
CTC2_L_00314009-02
1 10033U 25906XT  26075.70043981  .00000000  00000+0  00000-0 0  9990
2 10033  45.0000  96.0000 0000000   0.0000 186.0000 13.69880518    18
CTC2_L_00314009-03
1 10034U 22537WS  26075.70043981  .00000000  00000+0  00000-0 0  9998
2 10034  45.0000  96.0000 0000000   0.0000 276.0000 13.69880518    19
CTC2_L_00314009-04
1 10035U 26436HZ  26075.70043981  .00000000  00000+0  00000-0 0  9991
2 10035  45.0000  96.0000 0000000   0.0000   6.0000 13.69880518    11
CTC2_L_00314010-01
1 10036U 24162CZ  26075.70043981  .00000000  00000+0  00000-0 0  9996
2 10036  45.0000 108.0000 0000000   0.0000 108.0000 13.69880518    19
CTC2_L_00314010-02
1 10037U 25328LX  26075.70043981  .00000000  00000+0  00000-0 0  9992
2 10037  45.0000 108.0000 0000000   0.0000 198.0000 13.69880518    19
CTC2_L_00314010-03
1 10038U 23796I   26075.70043981  .00000000  00000+0  00000-0 0  9990
2 10038  45.0000 108.0000 0000000   0.0000 288.0000 13.69880518    10
CTC2_L_00314010-04
1 10039U 24454BX  26075.70043981  .00000000  00000+0  00000-0 0  9993
2 10039  45.0000 108.0000 0000000   0.0000  18.0000 13.69880518    12
CTC2_L_00314011-01
1 10040U 23994UM  26075.70043981  .00000000  00000+0  00000-0 0  9993
2 10040  45.0000 120.0000 0000000   0.0000 120.0000 13.69880518    12
CTC2_L_00314011-02
1 10041U 26659MY  26075.70043981  .00000000  00000+0  00000-0 0  9995
2 10041  45.0000 120.0000 0000000   0.0000 210.0000 13.69880518    13
CTC2_L_00314011-03
1 10042U 23133SA  26075.70043981  .00000000  00000+0  00000-0 0  9990
2 10042  45.0000 120.0000 0000000   0.0000 300.0000 13.69880518    14
CTC2_L_00314011-04
1 10043U 24013KM  26075.70043981  .00000000  00000+0  00000-0 0  9999
2 10043  45.0000 120.0000 0000000   0.0000  30.0000 13.69880518    15
CTC2_L_00314012-01
1 10044U 22617MN  26075.70043981  .00000000  00000+0  00000-0 0  9998
2 10044  45.0000 132.0000 0000000   0.0000 132.0000 13.69880518    12
CTC2_L_00314012-02
1 10045U 25386ME  26075.70043981  .00000000  00000+0  00000-0 0  9995
2 10045  45.0000 132.0000 0000000   0.0000 222.0000 13.69880518    13
CTC2_L_00314012-03
1 10046U 24397BC  26075.70043981  .00000000  00000+0  00000-0 0  9997
2 10046  45.0000 132.0000 0000000   0.0000 312.0000 13.69880518    14
CTC2_L_00314012-04
1 10047U 25535ZY  26075.70043981  .00000000  00000+0  00000-0 0  9993
2 10047  45.0000 132.0000 0000000   0.0000  42.0000 13.69880518    15
CTC2_L_00314013-01
1 10048U 22200MB  26075.70043981  .00000000  00000+0  00000-0 0  9990
2 10048  45.0000 144.0000 0000000   0.0000 144.0000 13.69880518    12
CTC2_L_00314013-02
1 10049U 26248ZJ  26075.70043981  .00000000  00000+0  00000-0 0  9997
2 10049  45.0000 144.0000 0000000   0.0000 234.0000 13.69880518    13
CTC2_L_00314013-03
1 10050U 22483LK  26075.70043981  .00000000  00000+0  00000-0 0  9996
2 10050  45.0000 144.0000 0000000   0.0000 324.0000 13.69880518    15
CTC2_L_00314013-04
1 10051U 24538VK  26075.70043981  .00000000  00000+0  00000-0 0  9990
2 10051  45.0000 144.0000 0000000   0.0000  54.0000 13.69880518    16
CTC2_L_00314014-01
1 10052U 22385IJ  26075.70043981  .00000000  00000+0  00000-0 0  9999
2 10052  45.0000 156.0000 0000000   0.0000 156.0000 13.69880518    13
CTC2_L_00314014-02
1 10053U 23091JM  26075.70043981  .00000000  00000+0  00000-0 0  9995
2 10053  45.0000 156.0000 0000000   0.0000 246.0000 13.69880518    14
CTC2_L_00314014-03
1 10054U 23875BI  26075.70043981  .00000000  00000+0  00000-0 0  9996
2 10054  45.0000 156.0000 0000000   0.0000 336.0000 13.69880518    15
CTC2_L_00314014-04
1 10055U 25744NZ  26075.70043981  .00000000  00000+0  00000-0 0  9994
2 10055  45.0000 156.0000 0000000   0.0000  66.0000 13.69880518    16
CTC2_L_00314015-01
1 10056U 23471PI  26075.70043981  .00000000  00000+0  00000-0 0  9990
2 10056  45.0000 168.0000 0000000   0.0000 168.0000 13.69880518    13
CTC2_L_00314015-02
1 10057U 25285EC  26075.70043981  .00000000  00000+0  00000-0 0  9996
2 10057  45.0000 168.0000 0000000   0.0000 258.0000 13.69880518    14
CTC2_L_00314015-03
1 10058U 24807IG  26075.70043981  .00000000  00000+0  00000-0 0  9996
2 10058  45.0000 168.0000 0000000   0.0000 348.0000 13.69880518    15
CTC2_L_00314015-04
1 10059U 26681BP  26075.70043981  .00000000  00000+0  00000-0 0  9999
2 10059  45.0000 168.0000 0000000   0.0000  78.0000 13.69880518    16
CTC2_L_00314016-01
1 10060U 24432AJ  26075.70043981  .00000000  00000+0  00000-0 0  9993
2 10060  45.0000 180.0000 0000000   0.0000 180.0000 13.69880518    16
CTC2_L_00314016-02
1 10061U 24076VF  26075.70043981  .00000000  00000+0  00000-0 0  9998
2 10061  45.0000 180.0000 0000000   0.0000 270.0000 13.69880518    17
